TRANSPORTER-12 OBJECT BT
1 62674U 25009BT  26068.71416991  .00013824  00000+0  51029-3 0  9998
2 62674  97.4094 151.5992 0003682 313.5044  46.5889 15.27872239121360
STARLINK-33878          
1 63862U 25093AC  26068.38448605  .00035565  00000+0  12942-2 0  9997
2 63862  43.0010  79.7369 0002047 248.7510 111.3123 15.27618604 47919
